SL-14 R/B               
1 16792U 86046B   26093.86321688  .00000838  00000+0  93538-4 0  9991
2 16792  82.4815  56.3912 0024033 141.7301 218.5627 14.85617945130140
SL-14 R/B               
1 16882U 86055B   26093.53239531  .00000773  00000+0  86304-4 0  9991
2 16882  82.5169 103.3167 0017407 248.2650 233.3338 14.85667098123055
AJISAI (EGS)            
1 16908U 86061A   26093.94390419 -.00000102  00000+0 -31409-4 0  9999
2 16908  50.0123  15.6912 0011352 352.0275 131.2466 12.44515644471143
SL-14 R/B               
1 17567U 87024B   26093.95477426  .00000817  00000+0  90170-4 0  9997
2 17567  82.5263  69.0107 0018365 172.1467 188.0041 14.86159280 91880
COSMOS 1833             
1 17589U 87027A   26093.84910193 -.00000309  00000+0 -13940-3 0  9992
2 17589  70.9164 273.1352 0022996 176.9964 183.1300 14.13044513 13873
SL-16 R/B               
1 17590U 87027B   26093.82034850  .00000292  00000+0  16848-3 0  9998
2 17590  71.0024 223.5345 0002871  79.1178 281.0268 14.17168275 18900
SL-14 R/B               
1 17912U 87038B   26093.89534027  .00000817  00000+0  91784-4 0  9992
2 17912  82.4977 273.0552 0020748  82.0589 278.2981 14.85395222 82970
COSMOS 1844             
1 17973U 87041A   26093.92816406  .00000369  00000+0  21627-3 0  9991
2 17973  70.9016 340.9435 0031478 340.8314  19.1620 14.14561815  7154
SL-14 R/B               
1 18153U 87055B   26093.73304490  .00000704  00000+0  78297-4 0  9990
2 18153  82.4996 325.4307 0019219 292.6522  67.2661 14.85655666 73653
COSMOS 1867             
1 18187U 87060A   26093.73111755  .00000019  00000+0  44789-4 0  9991
2 18187  65.0101 236.5733 0014935 280.0607  79.8792 14.31507283 23522
SL-14 R/B               
1 18749U 88001B   26093.59543531  .00000766  00000+0  85536-4 0  9990
2 18749  82.5157 171.9431 0018808 151.9375 208.2859 14.85556698 45720
COSMOS 1933             
1 18958U 88020A   26093.77139902  .00008641  00000+0  42051-3 0  9990
2 18958  82.5138 226.0899 0005489 109.4557 250.7271 15.18241542 54032
